{
    "links": {
        "self": "http://www.neowsapp.com/rest/v1/neo/3619323?api_key=iIulBulltgU6a56xZRHN4H3l9WmuAYTsLGpBGhQ2"
    },
    "id": "3619323",
    "neo_reference_id": "3619323",
    "name": "(2012 XQ2)",
    "designation": "2012 XQ2",
    "nasa_jpl_url": "http://ssd.jpl.nasa.gov/sbdb.cgi?sstr=3619323",
    "absolute_magnitude_h": 26.2,
    "estimated_diameter": {
        "kilometers": {
            "estimated_diameter_min": 0.0152951935,
            "estimated_diameter_max": 0.0342010925
        },
        "meters": {
            "estimated_diameter_min": 15.2951935344,
            "estimated_diameter_max": 34.201092472
        },
        "miles": {
            "estimated_diameter_min": 0.0095039897,
            "estimated_diameter_max": 0.021251567
        },
        "feet": {
            "estimated_diameter_min": 50.1810827555,
            "estimated_diameter_max": 112.2083122258
        }
    },
    "is_potentially_hazardous_asteroid": false,
    "close_approach_data": [
        {
            "close_approach_date": "2012-11-26",
            "close_approach_date_full": "2012-Nov-26 13:39",
            "epoch_date_close_approach": 1353937140000,
            "relative_velocity": {
                "kilometers_per_second": "7.3384109409",
                "kilometers_per_hour": "26418.2793873831",
                "miles_per_hour": "16415.2914337881"
            },
            "miss_distance": {
                "astronomical": "0.0415355877",
                "lunar": "16.1573436153",
                "kilometers": "6213635.449118199",
                "miles": "3860974.0323371862"
            },
            "orbiting_body": "Earth"
        },
        {
            "close_approach_date": "2104-11-23",
            "close_approach_date_full": "2104-Nov-23 15:49",
            "epoch_date_close_approach": 4256898540000,
            "relative_velocity": {
                "kilometers_per_second": "6.967511358",
                "kilometers_per_hour": "25083.0408889365",
                "miles_per_hour": "15585.626156795"
            },
            "miss_distance": {
                "astronomical": "0.0511805634",
                "lunar": "19.9092391626",
                "kilometers": "7656503.270039958",
                "miles": "4757530.5223811004"
            },
            "orbiting_body": "Earth"
        }
    ],
    "orbital_data": {
        "orbit_id": "5",
        "orbit_determination_date": "2017-04-06 08:47:49",
        "first_observation_date": "2012-12-04",
        "last_observation_date": "2012-12-14",
        "data_arc_in_days": 10,
        "observations_used": 23,
        "orbit_uncertainty": "8",
        "minimum_orbit_intersection": ".0413179",
        "jupiter_tisserand_invariant": "4.511",
        "epoch_osculation": "2456268.5",
        "eccentricity": ".3143827784605989",
        "semi_major_axis": "1.479985582964784",
        "inclination": "10.63887659472806",
        "ascending_node_longitude": "249.0329208221992",
        "orbital_period": "657.6345992396965",
        "perihelion_distance": "1.014703603310686",
        "perihelion_argument": "158.4832388097354",
        "aphelion_distance": "1.945267562618882",
        "perihelion_time": "2456242.865891424137",
        "mean_anomaly": "14.03253280466031",
        "mean_motion": ".5474164534776648",
        "equinox": "J2000",
        "orbit_class": {
            "orbit_class_type": "APO",
            "orbit_class_description": "Near-Earth asteroid orbits which cross the Earth’s orbit similar to that of 1862 Apollo",
            "orbit_class_range": "a (semi-major axis) > 1.0 AU; q (perihelion) < 1.017 AU"
        }
    },
    "is_sentry_object": false
}